[{"OBJECT_NAME":"SZ-21 MODULE","OBJECT_ID":"2025-246C","EPOCH":"2026-03-06T12:11:03.500160","MEAN_MOTION":15.68252686,"ECCENTRICITY":0.00014339,"INCLINATION":41.4735,"RA_OF_ASC_NODE":222.9439,"ARG_OF_PERICENTER":292.6372,"MEAN_ANOMALY":67.4317,"EPHEMERIS_TYPE":0,"CLASSIFICATION_TYPE":"U","NORAD_CAT_ID":66515,"ELEMENT_SET_NO":999,"REV_AT_EPOCH":1757,"BSTAR":0.00036494457,"MEAN_MOTION_DOT":0.0004195,"MEAN_MOTION_DDOT":0},{"OBJECT_NAME":"SHENZHOU-22","OBJECT_ID":"2025-272A","EPOCH":"2026-03-06T20:03:32.076288","MEAN_MOTION":15.60495557,"ECCENTRICITY":0.000695,"INCLINATION":41.4663,"RA_OF_ASC_NODE":225.5243,"ARG_OF_PERICENTER":255.9346,"MEAN_ANOMALY":104.072,"EPHEMERIS_TYPE":0,"CLASSIFICATION_TYPE":"U","NORAD_CAT_ID":66645,"ELEMENT_SET_NO":999,"REV_AT_EPOCH":26875,"BSTAR":0.00030829,"MEAN_MOTION_DOT":0.00025906,"MEAN_MOTION_DDOT":0},{"OBJECT_NAME":"SOYUZ-MS 28","OBJECT_ID":"2025-275A","EPOCH":"2026-03-06T13:04:21.510624","MEAN_MOTION":15.48477653,"ECCENTRICITY":0.00081171,"INCLINATION":51.6317,"RA_OF_ASC_NODE":87.9051,"ARG_OF_PERICENTER":163.3368,"MEAN_ANOMALY":196.7888,"EPHEMERIS_TYPE":0,"CLASSIFICATION_TYPE":"U","NORAD_CAT_ID":66664,"ELEMENT_SET_NO":999,"REV_AT_EPOCH":55452,"BSTAR":0.00018044032,"MEAN_MOTION_DOT":9.332e-5,"MEAN_MOTION_DDOT":0},{"OBJECT_NAME":"DUPLEX","OBJECT_ID":"1998-067XS","EPOCH":"2026-03-06T10:32:36.618144","MEAN_MOTION":15.55966204,"ECCENTRICITY":0.00021773,"INCLINATION":51.6289,"RA_OF_ASC_NODE":85.7046,"ARG_OF_PERICENTER":98.7594,"MEAN_ANOMALY":261.3644,"EPHEMERIS_TYPE":0,"CLASSIFICATION_TYPE":"U","NORAD_CAT_ID":66906,"ELEMENT_SET_NO":999,"REV_AT_EPOCH":1462,"BSTAR":0.00045867993,"MEAN_MOTION_DOT":0.00032127,"MEAN_MOTION_DDOT":0},{"OBJECT_NAME":"ISS OBJECT XT","OBJECT_ID":"1998-067XT","EPOCH":"2026-03-06T06:28:51.010176","MEAN_MOTION":15.6803586,"ECCENTRICITY":0.00046743,"INCLINATION":51.6248,"RA_OF_ASC_NODE":83.0631,"ARG_OF_PERICENTER":56.5604,"MEAN_ANOMALY":303.5839,"EPHEMERIS_TYPE":0,"CLASSIFICATION_TYPE":"U","NORAD_CAT_ID":66907,"ELEMENT_SET_NO":999,"REV_AT_EPOCH":1464,"BSTAR":0.001331197,"MEAN_MOTION_DOT":0.00153072,"MEAN_MOTION_DDOT":0},{"OBJECT_NAME":"ISS OBJECT XU","OBJECT_ID":"1998-067XU","EPOCH":"2026-03-06T07:58:22.188864","MEAN_MOTION":15.68155385,"ECCENTRICITY":0.0004715,"INCLINATION":51.6249,"RA_OF_ASC_NODE":82.7244,"ARG_OF_PERICENTER":58.9313,"MEAN_ANOMALY":301.2145,"EPHEMERIS_TYPE":0,"CLASSIFICATION_TYPE":"U","NORAD_CAT_ID":66908,"ELEMENT_SET_NO":999,"REV_AT_EPOCH":1465,"BSTAR":0.0013221278,"MEAN_MOTION_DOT":0.00152767,"MEAN_MOTION_DDOT":0},{"OBJECT_NAME":"SILVERSAT","OBJECT_ID":"1998-067XV","EPOCH":"2026-03-06T06:36:55.814400","MEAN_MOTION":15.7073424,"ECCENTRICITY":0.00055309,"INCLINATION":51.6242,"RA_OF_ASC_NODE":82.3461,"ARG_OF_PERICENTER":54.5981,"MEAN_ANOMALY":305.5533,"EPHEMERIS_TYPE":0,"CLASSIFICATION_TYPE":"U","NORAD_CAT_ID":66909,"ELEMENT_SET_NO":999,"REV_AT_EPOCH":1465,"BSTAR":0.0014660588,"MEAN_MOTION_DOT":0.00189452,"MEAN_MOTION_DDOT":0},{"OBJECT_NAME":"ISS OBJECT XW","OBJECT_ID":"1998-067XW","EPOCH":"2026-03-06T10:54:58.716864","MEAN_MOTION":15.67532901,"ECCENTRICITY":0.0005009,"INCLINATION":51.6239,"RA_OF_ASC_NODE":82.0383,"ARG_OF_PERICENTER":67.5902,"MEAN_ANOMALY":292.5625,"EPHEMERIS_TYPE":0,"CLASSIFICATION_TYPE":"U","NORAD_CAT_ID":66910,"ELEMENT_SET_NO":999,"REV_AT_EPOCH":1467,"BSTAR":0.0012172159,"MEAN_MOTION_DOT":0.00136808,"MEAN_MOTION_DDOT":0},{"OBJECT_NAME":"ISS OBJECT XX","OBJECT_ID":"1998-067XX","EPOCH":"2026-03-06T09:44:44.607840","MEAN_MOTION":15.73534846,"ECCENTRICITY":0.00070254,"INCLINATION":51.6211,"RA_OF_ASC_NODE":80.9498,"ARG_OF_PERICENTER":63.211,"MEAN_ANOMALY":296.9607,"EPHEMERIS_TYPE":0,"CLASSIFICATION_TYPE":"U","NORAD_CAT_ID":66911,"ELEMENT_SET_NO":999,"REV_AT_EPOCH":1467,"BSTAR":0.0016386152,"MEAN_MOTION_DOT":0.00240114,"MEAN_MOTION_DDOT":0},{"OBJECT_NAME":"ISS OBJECT XY","OBJECT_ID":"1998-067XY","EPOCH":"2026-03-06T10:47:05.015040","MEAN_MOTION":15.62981143,"ECCENTRICITY":0.0003032,"INCLINATION":51.6268,"RA_OF_ASC_NODE":83.5178,"ARG_OF_PERICENTER":70.8849,"MEAN_ANOMALY":289.2473,"EPHEMERIS_TYPE":0,"CLASSIFICATION_TYPE":"U","NORAD_CAT_ID":66912,"ELEMENT_SET_NO":999,"REV_AT_EPOCH":1464,"BSTAR":0.00098520063,"MEAN_MOTION_DOT":0.00091647,"MEAN_MOTION_DDOT":0},{"OBJECT_NAME":"ISS OBJECT XZ","OBJECT_ID":"1998-067XZ","EPOCH":"2026-03-06T10:37:58.419264","MEAN_MOTION":15.51523335,"ECCENTRICITY":0.00094596,"INCLINATION":51.6308,"RA_OF_ASC_NODE":87.9775,"ARG_OF_PERICENTER":174.9626,"MEAN_ANOMALY":185.146,"EPHEMERIS_TYPE":0,"CLASSIFICATION_TYPE":"U","NORAD_CAT_ID":67683,"ELEMENT_SET_NO":999,"REV_AT_EPOCH":428,"BSTAR":0.00067173175,"MEAN_MOTION_DOT":0.00040277,"MEAN_MOTION_DDOT":0},{"OBJECT_NAME":"GXIBA-1","OBJECT_ID":"1998-067YA","EPOCH":"2026-03-06T08:33:09.123840","MEAN_MOTION":15.53698977,"ECCENTRICITY":0.00109321,"INCLINATION":51.6296,"RA_OF_ASC_NODE":88.1497,"ARG_OF_PERICENTER":164.4811,"MEAN_ANOMALY":195.6517,"EPHEMERIS_TYPE":0,"CLASSIFICATION_TYPE":"U","NORAD_CAT_ID":67684,"ELEMENT_SET_NO":999,"REV_AT_EPOCH":427,"BSTAR":0.0011727792,"MEAN_MOTION_DOT":0.0007687,"MEAN_MOTION_DDOT":0},{"OBJECT_NAME":"CORAL","OBJECT_ID":"1998-067YB","EPOCH":"2026-03-06T08:59:53.384352","MEAN_MOTION":15.51836923,"ECCENTRICITY":0.00113315,"INCLINATION":51.6303,"RA_OF_ASC_NODE":88.2731,"ARG_OF_PERICENTER":171.0094,"MEAN_ANOMALY":189.11,"EPHEMERIS_TYPE":0,"CLASSIFICATION_TYPE":"U","NORAD_CAT_ID":67685,"ELEMENT_SET_NO":999,"REV_AT_EPOCH":427,"BSTAR":0.00072551429,"MEAN_MOTION_DOT":0.0004409,"MEAN_MOTION_DDOT":0},{"OBJECT_NAME":"ISS OBJECT YC","OBJECT_ID":"1998-067YC","EPOCH":"2026-03-06T08:53:28.719456","MEAN_MOTION":15.52303119,"ECCENTRICITY":0.00078269,"INCLINATION":51.6305,"RA_OF_ASC_NODE":88.2448,"ARG_OF_PERICENTER":138.7374,"MEAN_ANOMALY":221.4209,"EPHEMERIS_TYPE":0,"CLASSIFICATION_TYPE":"U","NORAD_CAT_ID":67686,"ELEMENT_SET_NO":999,"REV_AT_EPOCH":427,"BSTAR":0.00083918789,"MEAN_MOTION_DOT":0.00051923,"MEAN_MOTION_DDOT":0},{"OBJECT_NAME":"LEOPARD","OBJECT_ID":"1998-067YD","EPOCH":"2026-03-06T10:35:07.082880","MEAN_MOTION":15.51685674,"ECCENTRICITY":0.00077795,"INCLINATION":51.6311,"RA_OF_ASC_NODE":87.9659,"ARG_OF_PERICENTER":143.5641,"MEAN_ANOMALY":216.588,"EPHEMERIS_TYPE":0,"CLASSIFICATION_TYPE":"U","NORAD_CAT_ID":67687,"ELEMENT_SET_NO":999,"REV_AT_EPOCH":420,"BSTAR":0.00073033201,"MEAN_MOTION_DOT":0.00044085,"MEAN_MOTION_DDOT":0},{"OBJECT_NAME":"ISS OBJECT YE","OBJECT_ID":"1998-067YE","EPOCH":"2026-03-06T08:56:21.134112","MEAN_MOTION":15.52085564,"ECCENTRICITY":0.00077521,"INCLINATION":51.6307,"RA_OF_ASC_NODE":88.258,"ARG_OF_PERICENTER":139.1868,"MEAN_ANOMALY":220.9703,"EPHEMERIS_TYPE":0,"CLASSIFICATION_TYPE":"U","NORAD_CAT_ID":67688,"ELEMENT_SET_NO":999,"REV_AT_EPOCH":419,"BSTAR":0.00077965705,"MEAN_MOTION_DOT":0.00047802,"MEAN_MOTION_DDOT":0}]
